NORAD_CAT_ID,OBJECT_NAME,OBJECT_TYPE,EPOCH,MEAN_MOTION,ECCENTRICITY,INCLINATION,RA_OF_ASC_NODE,ARG_OF_PERICENTER,MEAN_ANOMALY,BSTAR,MEAN_MOTION_DOT,MEAN_MOTION_DDOT,TLE_LINE0,TLE_LINE1,TLE_LINE2,SEMIMAJOR_AXIS,PERIOD,APOGEE,PERIGEE,DECAYED
52100.0,STARLINK-3702,PAYLOAD,2022-07-18 22:00:00,15.08840382,0.000121,53.2176,298.6971,85.4757,44.3677,-0.0014585,-0.00023425,0.0,0 STARLINK-3702,1 52100U 22029N   22199.91667824 -.00023425  00000-0 -14585-2 0  9992,2 52100  53.2176 298.6971 0001210  85.4757  44.3677 15.08840382 19905,6917.879,95.438,540.581,538.9069999999998,0.0
52100.0,STARLINK-3702,PAYLOAD,2022-07-19 06:00:00,15.08833318,0.0001232,53.2179,297.1997,94.9375,46.5046,0.0021907,0.00034743,0.0,0 STARLINK-3702,1 52100U 22029N   22200.25001157  .00034743  00000-0  21907-2 0  9992,2 52100  53.2179 297.1997 0001232  94.9375  46.5046 15.08833318 19955,6917.901,95.438,540.618,538.914,0.0
52100.0,STARLINK-3702,PAYLOAD,2022-07-19 14:00:01,15.0885227,0.000125,53.2177,295.7051,83.5526,69.4911,-0.00011945,-2.189e-05,0.0,0 STARLINK-3702,1 52100U 22029N   22200.58334491 -.00002189  00000-0 -11945-3 0  9991,2 52100  53.2177 295.7051 0001250  83.5526  69.4911 15.08852270  1303,6917.843000000003,95.437,540.573,538.8430000000002,0.0
52100.0,STARLINK-3702,PAYLOAD,2022-07-19 22:00:00,15.08873345,0.0001274,53.2173,294.208,82.4777,82.1705,-0.0047411,-0.00075025,0.0,0 STARLINK-3702,1 52100U 22029N   22200.91667824 -.00075025  00000-0 -47411-2 0  9992,2 52100  53.2173 294.2080 0001274  82.4777  82.1705 15.08873345  1306,6917.778,95.435,540.525,538.762,0.0
52100.0,STARLINK-3702,PAYLOAD,2022-07-20 06:00:00,15.08822737,0.0001199,53.2174,292.71,92.446,83.8244,0.0007901,0.00012303,0.0,0 STARLINK-3702,1 52100U 22029N   22201.25001157  .00012303  00000-0  79010-3 0  9990,2 52100  53.2174 292.7100 0001199  92.4460  83.8244 15.08822737 20103,6917.933000000001,95.439,540.628,538.969,0.0
52100.0,STARLINK-3702,PAYLOAD,2022-07-20 14:00:01,15.08824838,0.0001452,53.2175,291.2158,84.6374,103.2379,0.001401,0.0002207,0.0,0 STARLINK-3702,1 52100U 22029N   22201.58334491  .00022070  00000-0  14010-2 0  9996,2 52100  53.2175 291.2158 0001452  84.6374 103.2379 15.08824838  1301,6917.927,95.439,540.7959999999998,538.7869999999998,0.0
52100.0,STARLINK-3702,PAYLOAD,2022-07-20 22:00:01,15.08864678,0.0001338,53.2172,289.7184,89.1064,110.4059,-0.0035561,-0.00056477,0.0,0 STARLINK-3702,1 52100U 22029N   22201.91668981 -.00056477  00000-0 -35561-2 0  9991,2 52100  53.2172 289.7184 0001338  89.1064 110.4059 15.08864678  1309,6917.805,95.436,540.596,538.744,0.0
52100.0,STARLINK-3702,PAYLOAD,2022-07-21 08:00:01,15.08834389,0.0001274999999999,53.2174,287.8479,95.274,208.6618,-0.00065931,-0.00010764,0.0,0 STARLINK-3702,1 52100U 22029N   22202.33334491 -.00010764  00000-0 -65931-3 0  9998,2 52100  53.2174 287.8479 0001275  95.2740 208.6618 15.08834389 20269,6917.898,95.438,540.645,538.881,0.0
52100.0,STARLINK-3702,PAYLOAD,2022-07-21 14:00:01,15.0881455,0.0001284,53.2172,286.7268,85.2501,137.4386,0.0013022,0.00020483,0.0,0 STARLINK-3702,1 52100U 22029N   22202.58335648  .00020483  00000-0  13022-2 0  9990,2 52100  53.2172 286.7268 0001284  85.2501 137.4386 15.08814550  1308,6917.958000000001,95.439,540.711,538.935,0.0
52100.0,STARLINK-3702,PAYLOAD,2022-07-21 22:00:00,15.08845702,0.0001207,53.2169,285.2293,90.0915,144.1052,-0.0015693,-0.0002518,0.0,0 STARLINK-3702,1 52100U 22029N   22202.91667824 -.00025180  00000-0 -15693-2 0  9998,2 52100  53.2169 285.2293 0001207  90.0915 144.1052 15.08845702  1302,6917.863,95.437,540.563,538.893,0.0
52100.0,STARLINK-3702,PAYLOAD,2022-07-22 06:00:00,15.088452599999998,0.0001267,53.217,283.7326,97.0785,148.7088,0.00093388,0.00014608,0.0,0 STARLINK-3702,1 52100U 22029N   22203.25001157  .00014608  00000-0  93388-3 0  9996,2 52100  53.2170 283.7326 0001267  97.0785 148.7088 15.08845260 20402,6917.864000000001,95.437,540.606,538.8530000000002,0.0
52100.0,STARLINK-3702,PAYLOAD,2022-07-22 22:00:00,15.08869307,0.0001242999999999,53.2167,280.7402,88.2328,180.7688,-0.0037445,-0.00059437,0.0,0 STARLINK-3702,1 52100U 22029N   22203.91667824 -.00059437  00000-0 -37445-2 0  9990,2 52100  53.2167 280.7402 0001243  88.2328 180.7688 15.08869307 20500,6917.791,95.436,540.516,538.7959999999998,0.0
52100.0,STARLINK-3702,PAYLOAD,2022-07-23 14:00:01,15.08801756,0.0001231999999999,53.2168,277.7487,81.339,210.9252,0.0015559,0.00024535,0.0,0 STARLINK-3702,1 52100U 22029N   22204.58335648  .00024535  00000-0  15559-2 0  9991,2 52100  53.2168 277.7487 0001232  81.3390 210.9252 15.08801756  1305,6917.996999999999,95.44,540.715,539.01,0.0
52100.0,STARLINK-3702,PAYLOAD,2022-07-23 16:00:00,15.08793755,0.000118,53.2167,277.3747,79.9619,305.1323,0.0029415,0.00046777,0.0,0 STARLINK-3702,1 52100U 22029N   22204.66667824  .00046777  00000-0  29415-2 0  9992,2 52100  53.2167 277.3747 0001180  79.9619 305.1323 15.08793755 20629,6918.022,95.44,540.703,539.07,0.0
52100.0,STARLINK-3702,PAYLOAD,2022-07-23 22:00:00,15.08833787,0.0001142,53.2168,276.2511,86.0391,217.7299,-0.00088882,-0.00014403,0.0,0 STARLINK-3702,1 52100U 22029N   22204.91667824 -.00014403  00000-0 -88882-3 0  9997,2 52100  53.2168 276.2511 0001142  86.0391 217.7299 15.08833787  1305,6917.899,95.438,540.554,538.974,0.0
52100.0,STARLINK-3702,PAYLOAD,2022-07-24 14:00:01,15.08814799,0.0001250999999999,53.217,273.2599,78.3652,248.5677,0.0023584,0.0003742,0.0,0 STARLINK-3702,1 52100U 22029N   22205.58334491  .00037420  00000-0  23584-2 0  9991,2 52100  53.2170 273.2599 0001251  78.3652 248.5677 15.08814799  1300,6917.956999999999,95.439,540.688,538.957,0.0
52100.0,STARLINK-3702,PAYLOAD,2022-07-24 22:00:00,15.08850777,0.000121,53.2171,271.7621,83.736,254.7796,-0.0035973,-0.00057101,0.0,0 STARLINK-3702,1 52100U 22029N   22205.91667824 -.00057101  00000-0 -35973-2 0  9992,2 52100  53.2171 271.7621 0001210  83.7360 254.7796 15.08850777  1308,6917.847,95.437,540.55,538.875,0.0
52100.0,STARLINK-3702,PAYLOAD,2022-07-25 06:00:00,15.08827324,0.0001314,53.2173,270.2657,87.82600000000002,262.2662,-0.00044365,-7.339e-05,0.0,0 STARLINK-3702,1 52100U 22029N   22206.25001157 -.00007339  00000-0 -44365-3 0  9995,2 52100  53.2173 270.2657 0001314  87.8260 262.2662 15.08827324 20851,6917.919,95.438,540.693,538.875,0.0
52100.0,STARLINK-3702,PAYLOAD,2022-07-25 14:00:01,15.08800256,0.000135,53.2172,268.7711,76.7032,284.9688,0.002583,0.00041015,0.0,0 STARLINK-3702,1 52100U 22029N   22206.58334491  .00041015  00000-0  25830-2 0  9993,2 52100  53.2172 268.7711 0001350  76.7032 284.9688 15.08800256  1300,6918.002,95.44,540.8009999999998,538.933,0.0
52100.0,STARLINK-3702,PAYLOAD,2022-07-25 22:00:00,15.08825047,0.0001262999999999,53.2173,267.2733,83.2203,290.0181,-0.00029395,-4.961e-05,0.0,0 STARLINK-3702,1 52100U 22029N   22206.91667824 -.00004961  00000-0 -29395-3 0  9991,2 52100  53.2173 267.2733 0001263  83.2203 290.0181 15.08825047  1306,6917.926,95.439,540.665,538.9169999999998,0.0
52100.0,STARLINK-3702,PAYLOAD,2022-07-26 14:00:01,15.08809702,0.0001319,53.2172,264.2823,75.1724,321.2279,0.00267,0.00042426,0.0,0 STARLINK-3702,1 52100U 22029N   22207.58334491  .00042426  00000-0  26700-2 0  9998,2 52100  53.2172 264.2823 0001319  75.1724 321.2279 15.08809702  1307,6917.973000000001,95.439,540.75,538.9259999999998,0.0
52100.0,STARLINK-3702,PAYLOAD,2022-07-26 22:00:00,15.08830108,0.0001228,53.2172,262.7844,83.5128,324.4687,0.00020503,2.976e-05,0.0,0 STARLINK-3702,1 52100U 22029N   22207.91667824  .00002976  00000-0  20503-3 0  9996,2 52100  53.2172 262.7844 0001228  83.5128 324.4687 15.08830108  1305,6917.911,95.438,540.625,538.9259999999998,0.0
52100.0,STARLINK-3702,PAYLOAD,2022-07-27 06:00:02,15.08855813,0.000125,53.2173,261.2881,83.8441,335.781,-0.0014208,-0.00022838,0.0,0 STARLINK-3702,1 52100U 22029N   22208.25002315 -.00022838  00000-0 -14208-2 0  9997,2 52100  53.2173 261.2881 0001250  83.8441 335.7810 15.08855813 21166,6917.831999999999,95.437,540.562,538.832,0.0
52100.0,STARLINK-3702,PAYLOAD,2022-07-27 14:00:01,15.08818243,0.0001259,53.2169,259.7935,74.2836,356.8848,0.0027355,0.0004349,0.0,0 STARLINK-3702,1 52100U 22029N   22208.58334491  .00043490  00000-0  27355-2 0  9998,2 52100  53.2169 259.7935 0001259  74.2836 356.8848 15.08818243  1309,6917.946999999999,95.439,540.683,538.941,0.0
52100.0,STARLINK-3702,PAYLOAD,2022-07-27 22:00:00,15.08834955,0.0001167999999999,53.2168,258.2955,84.4663,358.2971,0.00077362,0.00012044,0.0,0 STARLINK-3702,1 52100U 22029N   22208.91667824  .00012044  00000-0  77362-3 0  9999,2 52100  53.2168 258.2955 0001168  84.4663 358.2971 15.08834955  1305,6917.896,95.438,540.569,538.953,0.0
52100.0,STARLINK-3702,PAYLOAD,2022-07-28 08:00:01,15.08858448,0.0001217999999999,53.2165,256.4261,81.0072,106.2492,-0.0016404,-0.00026313,0.0,0 STARLINK-3702,1 52100U 22029N   22209.33334491 -.00026313  00000-0 -16404-2 0  9992,2 52100  53.2165 256.4261 0001218  81.0072 106.2492 15.08858448 21321,6917.824000000001,95.436,540.5319999999998,538.846,0.0
52100.0,STARLINK-3702,PAYLOAD,2022-07-28 14:00:01,15.08825865,0.0001209,53.2162,255.3046,73.8989,32.0683,0.0027403,0.00043577,0.0,0 STARLINK-3702,1 52100U 22029N   22209.58334491  .00043577  00000-0  27403-2 0  9999,2 52100  53.2162 255.3046 0001209  73.8989  32.0683 15.08825865  1304,6917.924,95.438,540.625,538.952,0.0
52100.0,STARLINK-3702,PAYLOAD,2022-07-28 22:00:00,15.08837019,0.0001125999999999,53.216,253.8065,85.1504,32.4202,0.001194,0.00018764,0.0,0 STARLINK-3702,1 52100U 22029N   22209.91667824  .00018764  00000-0  11940-2 0  9994,2 52100  53.2160 253.8065 0001126  85.1504  32.4202 15.08837019  1308,6917.89,95.438,540.533,538.976,0.0
52100.0,STARLINK-3702,PAYLOAD,2022-07-29 00:00:00,15.08829494,0.0001145,53.216,253.4317,87.0545,123.4192,0.0024715,0.00039254,0.0,0 STARLINK-3702,1 52100U 22029N   22210.00001157  .00039254  00000-0  24715-2 0  9998,2 52100  53.2160 253.4317 0001145  87.0545 123.4192 15.08829494 21423,6917.913000000001,95.438,540.57,538.985,0.0
